      2.10          N: GNSS NAV DATA                        RINEX VERSION / TYPE
fic2rin                                 06/04/2020 00:17:34 PGM / RUN BY / DATE
                                                            END OF HEADER
18 20  6  3 14  0  0.0 2.094912342727e-04 1.125499693444e-11 0.000000000000e+00
    9.400000000000e+01-4.715625000000e+01 3.993023468312e-09-6.104694795213e-01
   -2.423301339149e-06 5.423956317827e-04 1.312606036663e-05 5.153729766846e+03
    3.096000000000e+05-1.676380634308e-08 2.965848479197e+00-4.097819328308e-08
    9.642321743804e-01 1.305312500000e+02 2.580490847070e+00-7.678891285216e-09
    2.453673633927e-10 1.000000000000e+00 2.108000000000e+03 0.000000000000e+00
    2.400000000000e+00 0.000000000000e+00-7.916241884232e-09 9.400000000000e+01
    3.024000000000e+05 4.000000000000e+00
12 20  6  3 13 59 44.0 1.103952527046e-04-4.433786671143e-12 0.000000000000e+00
    3.000000000000e+00 7.790625000000e+01 4.675551898361e-09-2.628880595909e+00
    4.082918167114e-06 8.068090770394e-03 1.501291990280e-06 5.153681915283e+03
    3.095840000000e+05 1.601874828339e-07 9.167367322332e-01-4.842877388000e-08
    9.782064857466e-01 3.597500000000e+02 1.156968698173e+00-8.369634343151e-09
    3.035840740667e-10 1.000000000000e+00 2.108000000000e+03 0.000000000000e+00
    2.400000000000e+00 0.000000000000e+00-1.210719347000e-08 3.000000000000e+00
    3.080100000000e+05 4.000000000000e+00
30 20  6  3 13 59 44.0-2.339272759855e-04-7.958078640513e-12 0.000000000000e+00
    2.400000000000e+01 9.531250000000e+01 4.809128890950e-09-1.971565717500e+00
    4.602596163750e-06 4.648588481359e-03 1.152046024799e-05 5.153646070480e+03
    3.095840000000e+05 2.235174179077e-08-1.666213031432e-01-4.656612873077e-08
    9.388718238486e-01 1.481562500000e+02-2.859695412924e+00-8.077836474313e-09
    1.092902666640e-10 1.000000000000e+00 2.108000000000e+03 0.000000000000e+00
    2.400000000000e+00 0.000000000000e+00 3.725290298462e-09 2.400000000000e+01
    3.085800000000e+05 4.000000000000e+00
 9 20  6  3 13 59 44.0-2.295314334333e-04-7.048583938740e-12 0.000000000000e+00
    3.200000000000e+01-4.078125000000e+01 4.813414783761e-09 1.310545067177e+00
   -2.071261405945e-06 1.509230933152e-03 7.731840014458e-06 5.153717891693e+03
    3.095840000000e+05 0.000000000000e+00-1.263120842807e+00-5.587935447693e-09
    9.523133609311e-01 2.248125000000e+02 1.801741157728e+00-8.188198214179e-09
   -4.143029716675e-10 1.000000000000e+00 2.108000000000e+03 0.000000000000e+00
    2.400000000000e+00 0.000000000000e+00 1.396983861923e-09 3.200000000000e+01
    3.087900000000e+05 4.000000000000e+00
12 20  6  3 15 59 44.0 1.103631220758e-04-4.433786671143e-12 0.000000000000e+00
    4.000000000000e+00 7.243750000000e+01 4.618049503155e-09-1.578622672268e+00
    4.008412361145e-06 8.067845599726e-03 1.532956957817e-06 5.153683195114e+03
    3.167840000000e+05 1.210719347000e-07 9.166764322129e-01 4.656612873077e-08
    9.782088366559e-01 3.598125000000e+02 1.156887428685e+00-8.382134863848e-09
    3.300137463972e-10 1.000000000000e+00 2.108000000000e+03 0.000000000000e+00
    2.400000000000e+00 0.000000000000e+00-1.210719347000e-08 4.000000000000e+00
    3.096000000000e+05 4.000000000000e+00
 9 20  6  3 15 59 44.0-2.295821905136e-04-7.048583938740e-12 0.000000000000e+00
    3.300000000000e+01-4.562500000000e+01 4.785199322759e-09 2.360903730283e+00
   -2.300366759300e-06 1.509627792984e-03 7.666647434235e-06 5.153717138290e+03
    3.167840000000e+05-2.421438694000e-08-1.263179344901e+00 7.078051567078e-08
    9.523105243330e-01 2.270312500000e+02 1.801538078366e+00-8.123909822024e-09
   -4.507330605555e-10 1.000000000000e+00 2.108000000000e+03 0.000000000000e+00
    2.400000000000e+00 0.000000000000e+00 1.396983861923e-09 3.300000000000e+01
    3.096000000000e+05 4.000000000000e+00
30 20  6  3 15 59 44.0-2.339850179851e-04-7.958078640513e-12 0.000000000000e+00
    2.500000000000e+01 8.625000000000e+01 4.701981570691e-09-9.212551346599e-01
    4.472211003304e-06 4.649226553738e-03 1.105479896069e-05 5.153647171021e+03
    3.167840000000e+05 8.940696716309e-08-1.666793063821e-01-9.313225746155e-09
    9.388724616809e-01 1.512187500000e+02-2.859806258227e+00-8.114980878669e-09
    7.464596644698e-11 1.000000000000e+00 2.108000000000e+03 0.000000000000e+00
    2.400000000000e+00 0.000000000000e+00 3.725290298462e-09 2.500000000000e+01
    3.096000000000e+05 4.000000000000e+00
 2 20  6  3 16  0  0.0-4.663541913033e-04-6.025402399246e-12 0.000000000000e+00
    2.400000000000e+01-5.018750000000e+01 4.399468969827e-09 1.191200839325e-01
   -2.607703208923e-06 1.970253128093e-02 1.225247979164e-05 5.153712217331e+03
    3.168000000000e+05-3.799796104431e-07 2.872273750805e+00-3.725290298462e-09
    9.595982731084e-01 1.506250000000e+02-1.626576946967e+00-8.204270312218e-09
    9.714690370133e-11 1.000000000000e+00 2.108000000000e+03 0.000000000000e+00
    2.400000000000e+00 0.000000000000e+00-1.769512891769e-08 2.400000000000e+01
    3.096000000000e+05 4.000000000000e+00
 1 20  6  3 16  0  0.0-3.875978291035e-04-1.818989403546e-12 0.000000000000e+00
    7.500000000000e+01-4.862500000000e+01 3.895519406877e-09-1.192131138190e-01
   -2.473592758179e-06 9.925637976266e-03 1.179985702038e-05 5.153628213882e+03
    3.168000000000e+05 4.470348358154e-08 2.948678080964e+00 9.872019290924e-08
    9.806452872181e-01 1.603437500000e+02 7.842535294789e-01-7.793896075627e-09
    1.403629895391e-10 1.000000000000e+00 2.108000000000e+03 0.000000000000e+00
    3.400000000000e+00 0.000000000000e+00 5.122274160385e-09 7.500000000000e+01
    3.096000000000e+05 4.000000000000e+00
 3 20  6  3 16  0  0.0-1.970133744180e-04-1.239186531166e-11 0.000000000000e+00
    3.000000000000e+01 2.768750000000e+01 4.703410201628e-09-1.147455482344e+00
    1.369044184685e-06 2.870723605156e-03 5.953013896942e-06 5.153536935806e+03
    3.168000000000e+05 7.078051567078e-08-2.294536819000e+00 1.117587089539e-08
    9.656342409192e-01 2.684687500000e+02 7.117362223962e-01-8.148910863418e-09
    3.493002640438e-10 1.000000000000e+00 2.108000000000e+03 0.000000000000e+00
    2.400000000000e+00 0.000000000000e+00 1.862645149231e-09 3.000000000000e+01
    3.096000000000e+05 4.000000000000e+00
 7 20  6  3 16  0  0.0-2.960404381156e-04-8.753886504564e-12 0.000000000000e+00
    2.800000000000e+01 8.296875000000e+01 4.395897392485e-09-8.787926368750e-01
    4.585832357407e-06 1.390374789480e-02 1.103058457375e-05 5.153671558380e+03
    3.168000000000e+05 2.253800630569e-07-1.892380517587e-01 2.197921276093e-07
    9.535536579888e-01 1.627812500000e+02-2.393044780721e+00-8.023905656449e-09
    5.285934466102e-11 1.000000000000e+00 2.108000000000e+03 0.000000000000e+00
    2.400000000000e+00 0.000000000000e+00-1.117587089539e-08 2.800000000000e+01
    3.096000000000e+05 4.000000000000e+00
 4 20  6  3 16  0  0.0-9.779585525393e-05-4.888534022029e-12 0.000000000000e+00
    7.500000000000e+01-4.756250000000e+01 4.638407494005e-09 9.852713633414e-01
   -2.419576048851e-06 7.542555686086e-04 7.992610335350e-06 5.153672275543e+03
    3.168000000000e+05-1.285225152969e-07-1.215194050487e+00-3.725290298462e-09
    9.596115929775e-01 2.256562500000e+02-2.593606608389e+00-8.037834808083e-09
   -5.160929259133e-10 1.000000000000e+00 2.108000000000e+03 0.000000000000e+00
    2.400000000000e+00 0.000000000000e+00-4.190951585770e-09 7.500000000000e+01
    3.096000000000e+05 4.000000000000e+00
 6 20  6  3 16  0  0.0-2.827541902661e-04-6.252776074689e-12 0.000000000000e+00
    4.800000000000e+01-3.996875000000e+01 3.800872607315e-09 3.360429621096e-02
   -2.091750502586e-06 1.893521752208e-03 1.230649650097e-05 5.153553354263e+03
    3.168000000000e+05-4.470348358154e-08 2.940437157673e+00-6.332993507385e-08
    9.802029081056e-01 1.553125000000e+02-1.056035371883e+00-7.610317000250e-09
    1.557207721095e-10 1.000000000000e+00 2.108000000000e+03 0.000000000000e+00
    2.400000000000e+00 0.000000000000e+00 4.190951585770e-09 4.800000000000e+01
    3.096000000000e+05 4.000000000000e+00
 5 20  6  3 16  0  0.0-1.392699778080e-05-7.958078640513e-13 0.000000000000e+00
    1.010000000000e+02 2.800000000000e+01 5.009851537568e-09 2.805213735269e+00
    1.387670636177e-06 5.900293239392e-03 5.852431058884e-06 5.153662645340e+03
    3.168000000000e+05 6.146728992462e-08-2.326528808326e+00-5.960464477539e-08
    9.525647751064e-01 2.631250000000e+02 7.984279695012e-01-8.239271770169e-09
    4.168030758068e-10 1.000000000000e+00 2.108000000000e+03 0.000000000000e+00
    2.400000000000e+00 0.000000000000e+00-1.117587089539e-08 1.010000000000e+02
    3.096000000000e+05 4.000000000000e+00
27 20  6  3 16  0  0.0-3.109788522124e-04-1.000444171950e-11 0.000000000000e+00
    9.000000000000e+00-1.224062500000e+02 4.388397080067e-09 1.987460676458e+00
   -6.349757313728e-06 8.306617964990e-03 4.651024937630e-06 5.153666749954e+03
    3.168000000000e+05-1.601874828339e-07 1.893094910225e+00 5.587935447693e-09
    9.778484775084e-01 3.027187500000e+02 5.690763909445e-01-8.194984211129e-09
   -4.282321233011e-10 1.000000000000e+00 2.108000000000e+03 0.000000000000e+00
    2.400000000000e+00 0.000000000000e+00 1.862645149231e-09 9.000000000000e+00
    3.096000000000e+05 4.000000000000e+00
16 20  6  3 16  0  0.0-1.660068519413e-04-4.547473508865e-12 0.000000000000e+00
    2.400000000000e+01 7.965625000000e+01 4.530188700543e-09 2.864325784175e+00
    3.965571522713e-06 1.148383098189e-02 1.952052116394e-06 5.153769195557e+03
    3.168000000000e+05-1.545995473862e-07 9.355385971892e-01-1.154839992523e-07
    9.784210592558e-01 3.531562500000e+02 6.339609010048e-01-8.171768958406e-09
    2.632252501025e-10 1.000000000000e+00 2.108000000000e+03 0.000000000000e+00
    2.400000000000e+00 0.000000000000e+00-1.071020960808e-08 2.400000000000e+01
    3.096000000000e+05 4.000000000000e+00
